{
    "links": {
        "self": "http://www.neowsapp.com/rest/v1/neo/54049909?api_key=iIulBulltgU6a56xZRHN4H3l9WmuAYTsLGpBGhQ2"
    },
    "id": "54049909",
    "neo_reference_id": "54049909",
    "name": "(2010 CJ188)",
    "designation": "2010 CJ188",
    "nasa_jpl_url": "http://ssd.jpl.nasa.gov/sbdb.cgi?sstr=54049909",
    "is_potentially_hazardous_asteroid": false,
    "close_approach_data": [
        {
            "close_approach_date": "2009-12-20",
            "close_approach_date_full": "2009-Dec-20 23:35",
            "epoch_date_close_approach": 1261352100000,
            "relative_velocity": {
                "kilometers_per_second": "16.9859974026",
                "kilometers_per_hour": "61149.5906491883",
                "miles_per_hour": "37995.9775897692"
            },
            "miss_distance": {
                "astronomical": "0.3105924176",
                "lunar": "120.8204504464",
                "kilometers": "46463964.111110512",
                "miles": "28871368.5154965856"
            },
            "orbiting_body": "Earth"
        }
    ],
    "orbital_data": {
        "orbit_id": "1",
        "orbit_determination_date": "2020-09-01 07:29:36",
        "first_observation_date": "2010-02-02",
        "last_observation_date": "2010-02-13",
        "data_arc_in_days": 11,
        "observations_used": 54,
        "orbit_uncertainty": "9",
        "minimum_orbit_intersection": ".0466273",
        "jupiter_tisserand_invariant": "4.330",
        "epoch_osculation": "2455235.5",
        "eccentricity": ".3356310354079476",
        "semi_major_axis": "1.538894152939364",
        "inclination": "22.19243584315541",
        "ascending_node_longitude": "103.9911642040683",
        "orbital_period": "697.2869723085638",
        "perihelion_distance": "1.022393515005089",
        "perihelion_argument": "14.32008808005671",
        "aphelion_distance": "2.055394790873639",
        "perihelion_time": "2455196.909183120365",
        "mean_anomaly": "19.92392605683273",
        "mean_motion": ".5162867145045306",
        "equinox": "J2000",
        "orbit_class": {
            "orbit_class_type": "AMO",
            "orbit_class_description": "Near-Earth asteroid orbits similar to that of 1221 Amor",
            "orbit_class_range": "1.017 AU < q (perihelion) < 1.3 AU"
        }
    },
    "is_sentry_object": false
}